{
  "i": {
    "hanzi": "我",
    "pinyin": "wǒ",
    "zhuyin": "ㄨㄛˇ",
    "ipa": "/uɔ˨˩˦/",
    "english": "I/me",
    "state": "not_started",
    "correctPrompts": [],
    "lesson": null
  },
  "you": {
    "hanzi": "你",
    "pinyin": "nǐ",
    "zhuyin": "ㄋㄧˇ",
    "ipa": "/ni˨˩˦/",
    "english": "you",
    "state": "not_started",
    "correctPrompts": [],
    "lesson": null
  },
  "he": {
    "hanzi": "他",
    "pinyin": "tā",
    "zhuyin": "ㄊㄚ",
    "ipa": "/tʰa˥˥/",
    "english": "he/him",
    "state": "not_started",
    "correctPrompts": [],
    "lesson": null
  },
  "she": {
    "hanzi": "她",
    "pinyin": "tā",
    "zhuyin": "ㄊㄚ",
    "ipa": "/tʰa˥˥/",
    "english": "she/her",
    "state": "not_started",
    "correctPrompts": [],
    "lesson": null
  },
  "we": {
    "hanzi": "我们",
    "pinyin": "wǒmen",
    "zhuyin": "ㄨㄛˇ ㄇㄣ˙",
    "ipa": "/uɔ˨˩˦ mən/",
    "english": "we/us",
    "state": "not_started",
    "correctPrompts": [],
    "lesson": null
  },
  "they": {
    "hanzi": "他们",
    "pinyin": "tāmen",
    "zhuyin": "ㄊㄚ ㄇㄣ˙",
    "ipa": "/tʰa˥˥ mən/",
    "english": "they/them",
    "state": "not_started",
    "correctPrompts": [],
    "lesson": null
  },
  "is": {
    "hanzi": "是",
    "pinyin": "shì",
    "zhuyin": "ㄕˋ",
    "ipa": "/ʂɨ˥˩/",
    "english": "is/am/are",
    "state": "not_started",
    "correctPrompts": [],
    "lesson": null
  },
  "have": {
    "hanzi": "有",
    "pinyin": "yǒu",
    "zhuyin": "ㄧㄡˇ",
    "ipa": "/joʊ˨˩˦/",
    "english": "have/has",
    "state": "not_started",
    "correctPrompts": [],
    "lesson": null
  },
  "not": {
    "hanzi": "不",
    "pinyin": "bù",
    "zhuyin": "ㄅㄨˋ",
    "ipa": "/pu˥˩/",
    "english": "not/no",
    "state": "not_started",
    "correctPrompts": [],
    "lesson": null
  },
  "one": {
    "hanzi": "一",
    "pinyin": "yī",
    "zhuyin": "ㄧ",
    "ipa": "/i˥˥/",
    "english": "one/1",
    "state": "not_started",
    "correctPrompts": [],
    "lesson": null
  },
  "two": {
    "hanzi": "二",
    "pinyin": "èr",
    "zhuyin": "ㄦˋ",
    "ipa": "/əɻ˥˩/",
    "english": "two/2",
    "state": "not_started",
    "correctPrompts": [],
    "lesson": null
  },
  "three": {
    "hanzi": "三",
    "pinyin": "sān",
    "zhuyin": "ㄙㄢ",
    "ipa": "/san˥˥/",
    "english": "three/3",
    "state": "not_started",
    "correctPrompts": [],
    "lesson": null
  },
  "four": {
    "hanzi": "四",
    "pinyin": "sì",
    "zhuyin": "ㄙˋ",
    "ipa": "/sɨ˥˩/",
    "english": "four/4",
    "state": "not_started",
    "correctPrompts": [],
    "lesson": null
  },
  "five": {
    "hanzi": "五",
    "pinyin": "wǔ",
    "zhuyin": "ㄨˇ",
    "ipa": "/u˨˩˦/",
    "english": "five/5",
    "state": "not_started",
    "correctPrompts": [],
    "lesson": null
  },
  "six": {
    "hanzi": "六",
    "pinyin": "liù",
    "zhuyin": "ㄌㄧㄡˋ",
    "ipa": "/ljoʊ˥˩/",
    "english": "six/6",
    "state": "not_started",
    "correctPrompts": [],
    "lesson": null
  },
  "seven": {
    "hanzi": "七",
    "pinyin": "qī",
    "zhuyin": "ㄑㄧ",
    "ipa": "/tɕʰi˥˥/",
    "english": "seven/7",
    "state": "not_started",
    "correctPrompts": [],
    "lesson": null
  },
  "eight": {
    "hanzi": "八",
    "pinyin": "bā",
    "zhuyin": "ㄅㄚ",
    "ipa": "/pa˥˥/",
    "english": "eight/8",
    "state": "not_started",
    "correctPrompts": [],
    "lesson": null
  },
  "nine": {
    "hanzi": "九",
    "pinyin": "jiǔ",
    "zhuyin": "ㄐㄧㄡˇ",
    "ipa": "/tɕjoʊ˨˩˦/",
    "english": "nine/9",
    "state": "not_started",
    "correctPrompts": [],
    "lesson": null
  },
  "ten": {
    "hanzi": "十",
    "pinyin": "shí",
    "zhuyin": "ㄕˊ",
    "ipa": "/ʂɨ˧˥/",
    "english": "ten/10",
    "state": "not_started",
    "correctPrompts": [],
    "lesson": null
  },
  "man": {
    "hanzi": "男人",
    "pinyin": "nánrén",
    "zhuyin": "ㄋㄢˊ ㄖㄣˊ",
    "ipa": "/nan˧˥ ʐən˧˥/",
    "english": "man",
    "state": "not_started",
    "correctPrompts": [],
    "lesson": null
  },
  "woman": {
    "hanzi": "女人",
    "pinyin": "nǚrén",
    "zhuyin": "ㄋㄩˇ ㄖㄣˊ",
    "ipa": "/ny˨˩˦ ʐən˧˥/",
    "english": "woman",
    "state": "not_started",
    "correctPrompts": [],
    "lesson": null
  },
  "child": {
    "hanzi": "孩子",
    "pinyin": "háizi",
    "zhuyin": "ㄏㄞˊ ㄗ˙",
    "ipa": "/xaɪ˧˥ tsɨ/",
    "english": "child",
    "state": "not_started",
    "correctPrompts": [],
    "lesson": null
  },
  "person": {
    "hanzi": "人",
    "pinyin": "rén",
    "zhuyin": "ㄖㄣˊ",
    "ipa": "/ʐən˧˥/",
    "english": "person",
    "state": "not_started",
    "correctPrompts": [],
    "lesson": null
  },
  "water": {
    "hanzi": "水",
    "pinyin": "shuǐ",
    "zhuyin": "ㄕㄨㄟˇ",
    "ipa": "/ʂueɪ˨˩˦/",
    "english": "water",
    "state": "not_started",
    "correctPrompts": [],
    "lesson": null
  },
  "eat": {
    "hanzi": "吃",
    "pinyin": "chī",
    "zhuyin": "ㄔ",
    "ipa": "/ʈʂʰɨ˥˥/",
    "english": "eat",
    "state": "not_started",
    "correctPrompts": [],
    "lesson": null
  },
  "drink": {
    "hanzi": "喝",
    "pinyin": "hē",
    "zhuyin": "ㄏㄜ",
    "ipa": "/xɤ˥˥/",
    "english": "drink",
    "state": "not_started",
    "correctPrompts": [],
    "lesson": null
  },
  "rice": {
    "hanzi": "米饭",
    "pinyin": "mǐfàn",
    "zhuyin": "ㄇㄧˇ ㄈㄢˋ",
    "ipa": "/mi˨˩˦ fan˥˩/",
    "english": "rice (cooked)",
    "state": "not_started",
    "correctPrompts": [],
    "lesson": null
  },
  "food": {
    "hanzi": "食物",
    "pinyin": "shíwù",
    "zhuyin": "ㄕˊ ㄨˋ",
    "ipa": "/ʂɨ˧˥ u˥˩/",
    "english": "food",
    "state": "not_started",
    "correctPrompts": [],
    "lesson": null
  },
  "good": {
    "hanzi": "好",
    "pinyin": "hǎo",
    "zhuyin": "ㄏㄠˇ",
    "ipa": "/xɑʊ˨˩˦/",
    "english": "good",
    "state": "not_started",
    "correctPrompts": [],
    "lesson": null
  },
  "hello": {
    "hanzi": "你好",
    "pinyin": "nǐ hǎo",
    "zhuyin": "ㄋㄧˇ ㄏㄠˇ",
    "ipa": "/ni˨˩˦ xɑʊ˨˩˦/",
    "english": "hello",
    "state": "not_started",
    "correctPrompts": [],
    "lesson": null
  },
  "thanks": {
    "hanzi": "谢谢",
    "pinyin": "xièxie",
    "zhuyin": "ㄒㄧㄝˋ ㄒㄧㄝ˙",
    "ipa": "/ɕjɛ˥˩ ɕjɛ/",
    "english": "thank you",
    "state": "not_started",
    "correctPrompts": [],
    "lesson": null
  },
  "sorry": {
    "hanzi": "对不起",
    "pinyin": "duìbuqǐ",
    "zhuyin": "ㄉㄨㄟˋ ㄅㄨ˙ ㄑㄧˇ",
    "ipa": "/tuei˥˩ pu tɕʰi˨˩˦/",
    "english": "sorry",
    "state": "not_started",
    "correctPrompts": [],
    "lesson": null
  },
  "go": {
    "hanzi": "去",
    "pinyin": "qù",
    "zhuyin": "ㄑㄩˋ",
    "ipa": "/tɕʰy˥˩/",
    "english": "go",
    "state": "not_started",
    "correctPrompts": [],
    "lesson": null
  },
  "come": {
    "hanzi": "来",
    "pinyin": "lái",
    "zhuyin": "ㄌㄞˊ",
    "ipa": "/laɪ˧˥/",
    "english": "come",
    "state": "not_started",
    "correctPrompts": [],
    "lesson": null
  },
  "big": {
    "hanzi": "大",
    "pinyin": "dà",
    "zhuyin": "ㄉㄚˋ",
    "ipa": "/ta˥˩/",
    "english": "big",
    "state": "not_started",
    "correctPrompts": [],
    "lesson": null
  },
  "small": {
    "hanzi": "小",
    "pinyin": "xiǎo",
    "zhuyin": "ㄒㄧㄠˇ",
    "ipa": "/ɕjɑʊ˨˩˦/",
    "english": "small",
    "state": "not_started",
    "correctPrompts": [],
    "lesson": null
  },
  "many": {
    "hanzi": "多",
    "pinyin": "duō",
    "zhuyin": "ㄉㄨㄛ",
    "ipa": "/tuɔ˥˥/",
    "english": "many/much",
    "state": "not_started",
    "correctPrompts": [],
    "lesson": null
  },
  "few": {
    "hanzi": "少",
    "pinyin": "shǎo",
    "zhuyin": "ㄕㄠˇ",
    "ipa": "/ʂɑʊ˨˩˦/",
    "english": "few/little",
    "state": "not_started",
    "correctPrompts": [],
    "lesson": null
  },
  "see": {
    "hanzi": "看",
    "pinyin": "kàn",
    "zhuyin": "ㄎㄢˋ",
    "ipa": "/kʰan˥˩/",
    "english": "see/look/watch",
    "state": "not_started",
    "correctPrompts": [],
    "lesson": null
  },
  "want": {
    "hanzi": "要",
    "pinyin": "yào",
    "zhuyin": "ㄧㄠˋ",
    "ipa": "/jɑʊ˥˩/",
    "english": "want",
    "state": "not_started",
    "correctPrompts": [],
    "lesson": null
  },
  "like": {
    "hanzi": "喜欢",
    "pinyin": "xǐhuan",
    "zhuyin": "ㄒㄧˇ ㄏㄨㄢ˙",
    "ipa": "/ɕi˨˩˦ xuan/",
    "english": "like",
    "state": "not_started",
    "correctPrompts": [],
    "lesson": null
  },
  "book": {
    "hanzi": "书",
    "pinyin": "shū",
    "zhuyin": "ㄕㄨ",
    "ipa": "/ʂu˥˥/",
    "english": "book",
    "state": "not_started",
    "correctPrompts": [],
    "lesson": null
  },
  "home": {
    "hanzi": "家",
    "pinyin": "jiā",
    "zhuyin": "ㄐㄧㄚ",
    "ipa": "/tɕja˥˥/",
    "english": "home/family",
    "state": "not_started",
    "correctPrompts": [],
    "lesson": null
  },
  "school": {
    "hanzi": "学校",
    "pinyin": "xuéxiào",
    "zhuyin": "ㄒㄩㄝˊ ㄒㄧㄠˋ",
    "ipa": "/ɕyɛ˧˥ ɕjɑʊ˥˩/",
    "english": "school",
    "state": "not_started",
    "correctPrompts": [],
    "lesson": null
  },
  "student": {
    "hanzi": "学生",
    "pinyin": "xuésheng",
    "zhuyin": "ㄒㄩㄝˊ ㄕㄥ˙",
    "ipa": "/ɕyɛ˧˥ ʂɤŋ/",
    "english": "student",
    "state": "not_started",
    "correctPrompts": [],
    "lesson": null
  },
  "teacher": {
    "hanzi": "老师",
    "pinyin": "lǎoshī",
    "zhuyin": "ㄌㄠˇ ㄕ",
    "ipa": "/lɑʊ˨˩˦ ʂɨ˥˥/",
    "english": "teacher",
    "state": "not_started",
    "correctPrompts": [],
    "lesson": null
  },
  "friend": {
    "hanzi": "朋友",
    "pinyin": "péngyou",
    "zhuyin": "ㄆㄥˊ ㄧㄡ˙",
    "ipa": "/pʰɤŋ˧˥ joʊ/",
    "english": "friend",
    "state": "not_started",
    "correctPrompts": [],
    "lesson": null
  },
  "now": {
    "hanzi": "现在",
    "pinyin": "xiànzài",
    "zhuyin": "ㄒㄧㄢˋ ㄗㄞˋ",
    "ipa": "/ɕjɛn˥˩ tsaɪ˥˩/",
    "english": "now",
    "state": "not_started",
    "correctPrompts": [],
    "lesson": null
  },
  "today": {
    "hanzi": "今天",
    "pinyin": "jīntiān",
    "zhuyin": "ㄐㄧㄣ ㄊㄧㄢ",
    "ipa": "/tɕin˥˥ tʰjɛn˥˥/",
    "english": "today",
    "state": "not_started",
    "correctPrompts": [],
    "lesson": null
  },
  "tomorrow": {
    "hanzi": "明天",
    "pinyin": "míngtiān",
    "zhuyin": "ㄇㄧㄥˊ ㄊㄧㄢ",
    "ipa": "/miŋ˧˥ tʰjɛn˥˥/",
    "english": "tomorrow",
    "state": "not_started",
    "correctPrompts": [],
    "lesson": null
  },
  "yesterday": {
    "hanzi": "昨天",
    "pinyin": "zuótiān",
    "zhuyin": "ㄗㄨㄛˊ ㄊㄧㄢ",
    "ipa": "/tsuɔ˧˥ tʰjɛn˥˥/",
    "english": "yesterday",
    "state": "not_started",
    "correctPrompts": [],
    "lesson": null
  },
  "year": {
    "hanzi": "年",
    "pinyin": "nián",
    "zhuyin": "ㄋㄧㄢˊ",
    "ipa": "/njɛn˧˥/",
    "english": "year",
    "state": "not_started",
    "correctPrompts": [],
    "lesson": null
  },
  "month": {
    "hanzi": "月",
    "pinyin": "yuè",
    "zhuyin": "ㄩㄝˋ",
    "ipa": "/yɛ˥˩/",
    "english": "month/moon",
    "state": "not_started",
    "correctPrompts": [],
    "lesson": null
  },
  "day": {
    "hanzi": "天",
    "pinyin": "tiān",
    "zhuyin": "ㄊㄧㄢ",
    "ipa": "/tʰjɛn˥˥/",
    "english": "day/sky",
    "state": "not_started",
    "correctPrompts": [],
    "lesson": null
  },
  "time": {
    "hanzi": "时间",
    "pinyin": "shíjiān",
    "zhuyin": "ㄕˊ ㄐㄧㄢ",
    "ipa": "/ʂɨ˧˥ tɕjɛn˥˥/",
    "english": "time",
    "state": "not_started",
    "correctPrompts": [],
    "lesson": null
  },
  "what": {
    "hanzi": "什么",
    "pinyin": "shénme",
    "zhuyin": "ㄕㄣˊ ㄇㄜ˙",
    "ipa": "/ʂən˧˥ mɤ/",
    "english": "what",
    "state": "not_started",
    "correctPrompts": [],
    "lesson": null
  },
  "who": {
    "hanzi": "谁",
    "pinyin": "shéi",
    "zhuyin": "ㄕㄟˊ",
    "ipa": "/ʂeɪ˧˥/",
    "english": "who",
    "state": "not_started",
    "correctPrompts": [],
    "lesson": null
  },
  "where": {
    "hanzi": "哪里",
    "pinyin": "nǎli",
    "zhuyin": "ㄋㄚˇ ㄌㄧ˙",
    "ipa": "/na˨˩˦ li/",
    "english": "where",
    "state": "not_started",
    "correctPrompts": [],
    "lesson": null
  },
  "how": {
    "hanzi": "怎么",
    "pinyin": "zěnme",
    "zhuyin": "ㄗㄣˇ ㄇㄜ˙",
    "ipa": "/tsən˨˩˦ mɤ/",
    "english": "how",
    "state": "not_started",
    "correctPrompts": [],
    "lesson": null
  },
  "why": {
    "hanzi": "为什么",
    "pinyin": "wèishénme",
    "zhuyin": "ㄨㄟˋ ㄕㄣˊ ㄇㄜ˙",
    "ipa": "/ueɪ˥˩ ʂən˧˥ mɤ/",
    "english": "why",
    "state": "not_started",
    "correctPrompts": [],
    "lesson": null
  },
  "this": {
    "hanzi": "这",
    "pinyin": "zhè",
    "zhuyin": "ㄓㄜˋ",
    "ipa": "/ʈʂɤ˥˩/",
    "english": "this",
    "state": "not_started",
    "correctPrompts": [],
    "lesson": null
  },
  "that": {
    "hanzi": "那",
    "pinyin": "nà",
    "zhuyin": "ㄋㄚˋ",
    "ipa": "/na˥˩/",
    "english": "that",
    "state": "not_started",
    "correctPrompts": [],
    "lesson": null
  },
  "here": {
    "hanzi": "这里",
    "pinyin": "zhèli",
    "zhuyin": "ㄓㄜˋ ㄌㄧ˙",
    "ipa": "/ʈʂɤ˥˩ li/",
    "english": "here",
    "state": "not_started",
    "correctPrompts": [],
    "lesson": null
  },
  "there": {
    "hanzi": "那里",
    "pinyin": "nàli",
    "zhuyin": "ㄋㄚˋ ㄌㄧ˙",
    "ipa": "/na˥˩ li/",
    "english": "there",
    "state": "not_started",
    "correctPrompts": [],
    "lesson": null
  },
  "can": {
    "hanzi": "能",
    "pinyin": "néng",
    "zhuyin": "ㄋㄥˊ",
    "ipa": "/nɤŋ˧˥/",
    "english": "can/able to",
    "state": "not_started",
    "correctPrompts": [],
    "lesson": null
  },
  "do": {
    "hanzi": "做",
    "pinyin": "zuò",
    "zhuyin": "ㄗㄨㄛˋ",
    "ipa": "/tsuɔ˥˩/",
    "english": "do/make",
    "state": "not_started",
    "correctPrompts": [],
    "lesson": null
  },
  "say": {
    "hanzi": "说",
    "pinyin": "shuō",
    "zhuyin": "ㄕㄨㄛ",
    "ipa": "/ʂuɔ˥˥/",
    "english": "say/speak",
    "state": "not_started",
    "correctPrompts": [],
    "lesson": null
  },
  "know": {
    "hanzi": "知道",
    "pinyin": "zhīdào",
    "zhuyin": "ㄓ ㄉㄠˋ",
    "ipa": "/ʈʂɨ˥˥ tɑʊ˥˩/",
    "english": "know",
    "state": "not_started",
    "correctPrompts": [],
    "lesson": null
  },
  "think": {
    "hanzi": "想",
    "pinyin": "xiǎng",
    "zhuyin": "ㄒㄧㄤˇ",
    "ipa": "/ɕjɑŋ˨˩˦/",
    "english": "think/want to",
    "state": "not_started",
    "correctPrompts": [],
    "lesson": null
  },
  "give": {
    "hanzi": "给",
    "pinyin": "gěi",
    "zhuyin": "ㄍㄟˇ",
    "ipa": "/keɪ˨˩˦/",
    "english": "give",
    "state": "not_started",
    "correctPrompts": [],
    "lesson": null
  },
  "take": {
    "hanzi": "拿",
    "pinyin": "ná",
    "zhuyin": "ㄋㄚˊ",
    "ipa": "/na˧˥/",
    "english": "take/hold",
    "state": "not_started",
    "correctPrompts": [],
    "lesson": null
  },
  "buy": {
    "hanzi": "买",
    "pinyin": "mǎi",
    "zhuyin": "ㄇㄞˇ",
    "ipa": "/maɪ˨˩˦/",
    "english": "buy",
    "state": "not_started",
    "correctPrompts": [],
    "lesson": null
  },
  "sell": {
    "hanzi": "卖",
    "pinyin": "mài",
    "zhuyin": "ㄇㄞˋ",
    "ipa": "/maɪ˥˩/",
    "english": "sell",
    "state": "not_started",
    "correctPrompts": [],
    "lesson": null
  },
  "money": {
    "hanzi": "钱",
    "pinyin": "qián",
    "zhuyin": "ㄑㄧㄢˊ",
    "ipa": "/tɕʰjɛn˧˥/",
    "english": "money",
    "state": "not_started",
    "correctPrompts": [],
    "lesson": null
  },
  "thing": {
    "hanzi": "东西",
    "pinyin": "dōngxi",
    "zhuyin": "ㄉㄨㄥ ㄒㄧ˙",
    "ipa": "/tuŋ˥˥ ɕi/",
    "english": "thing",
    "state": "not_started",
    "correctPrompts": [],
    "lesson": null
  },
  "name": {
    "hanzi": "名字",
    "pinyin": "míngzi",
    "zhuyin": "ㄇㄧㄥˊ ㄗ˙",
    "ipa": "/miŋ˧˥ tsɨ/",
    "english": "name",
    "state": "not_started",
    "correctPrompts": [],
    "lesson": null
  },
  "doctor": {
    "hanzi": "医生",
    "pinyin": "yīshēng",
    "zhuyin": "ㄧ ㄕㄥ",
    "ipa": "/i˥˥ ʂɤŋ˥˥/",
    "english": "doctor",
    "state": "not_started",
    "correctPrompts": [],
    "lesson": null
  },
  "work": {
    "hanzi": "工作",
    "pinyin": "gōngzuò",
    "zhuyin": "ㄍㄨㄥ ㄗㄨㄛˋ",
    "ipa": "/kuŋ˥˥ tsuɔ˥˩/",
    "english": "work/job",
    "state": "not_started",
    "correctPrompts": [],
    "lesson": null
  },
  "car": {
    "hanzi": "车",
    "pinyin": "chē",
    "zhuyin": "ㄔㄜ",
    "ipa": "/ʈʂʰɤ˥˥/",
    "english": "car/vehicle",
    "state": "not_started",
    "correctPrompts": [],
    "lesson": null
  },
  "hot": {
    "hanzi": "热",
    "pinyin": "rè",
    "zhuyin": "ㄖㄜˋ",
    "ipa": "/ʐɤ˥˩/",
    "english": "hot",
    "state": "not_started",
    "correctPrompts": [],
    "lesson": null
  },
  "cold": {
    "hanzi": "冷",
    "pinyin": "lěng",
    "zhuyin": "ㄌㄥˇ",
    "ipa": "/lɤŋ˨˩˦/",
    "english": "cold",
    "state": "not_started",
    "correctPrompts": [],
    "lesson": null
  },
  "new": {
    "hanzi": "新",
    "pinyin": "xīn",
    "zhuyin": "ㄒㄧㄣ",
    "ipa": "/ɕin˥˥/",
    "english": "new",
    "state": "not_started",
    "correctPrompts": [],
    "lesson": null
  },
  "old": {
    "hanzi": "老",
    "pinyin": "lǎo",
    "zhuyin": "ㄌㄠˇ",
    "ipa": "/lɑʊ˨˩˦/",
    "english": "old",
    "state": "not_started",
    "correctPrompts": [],
    "lesson": null
  },
  "happy": {
    "hanzi": "高兴",
    "pinyin": "gāoxìng",
    "zhuyin": "ㄍㄠ ㄒㄧㄥˋ",
    "ipa": "/kɑʊ˥˥ ɕiŋ˥˩/",
    "english": "happy",
    "state": "not_started",
    "correctPrompts": [],
    "lesson": null
  },
  "love": {
    "hanzi": "爱",
    "pinyin": "ài",
    "zhuyin": "ㄞˋ",
    "ipa": "/aɪ˥˩/",
    "english": "love",
    "state": "not_started",
    "correctPrompts": [],
    "lesson": null
  },
  "sleep": {
    "hanzi": "睡觉",
    "pinyin": "shuìjiào",
    "zhuyin": "ㄕㄨㄟˋ ㄐㄧㄠˋ",
    "ipa": "/ʂueɪ˥˩ tɕjɑʊ˥˩/",
    "english": "sleep",
    "state": "not_started",
    "correctPrompts": [],
    "lesson": null
  },
  "read": {
    "hanzi": "读",
    "pinyin": "dú",
    "zhuyin": "ㄉㄨˊ",
    "ipa": "/tu˧˥/",
    "english": "read",
    "state": "not_started",
    "correctPrompts": [],
    "lesson": null
  },
  "write": {
    "hanzi": "写",
    "pinyin": "xiě",
    "zhuyin": "ㄒㄧㄝˇ",
    "ipa": "/ɕjɛ˨˩˦/",
    "english": "write",
    "state": "not_started",
    "correctPrompts": [],
    "lesson": null
  },
  "listen": {
    "hanzi": "听",
    "pinyin": "tīng",
    "zhuyin": "ㄊㄧㄥ",
    "ipa": "/tʰiŋ˥˥/",
    "english": "listen",
    "state": "not_started",
    "correctPrompts": [],
    "lesson": null
  },
  "speak": {
    "hanzi": "说话",
    "pinyin": "shuōhuà",
    "zhuyin": "ㄕㄨㄛ ㄏㄨㄚˋ",
    "ipa": "/ʂuɔ˥˥ xua˥˩/",
    "english": "speak",
    "state": "not_started",
    "correctPrompts": [],
    "lesson": null
  },
  "ask": {
    "hanzi": "问",
    "pinyin": "wèn",
    "zhuyin": "ㄨㄣˋ",
    "ipa": "/uən˥˩/",
    "english": "ask",
    "state": "not_started",
    "correctPrompts": [],
    "lesson": null
  },
  "answer": {
    "hanzi": "回答",
    "pinyin": "huídá",
    "zhuyin": "ㄏㄨㄟˊ ㄉㄚˊ",
    "ipa": "/xueɪ˧˥ ta˧˥/",
    "english": "answer",
    "state": "not_started",
    "correctPrompts": [],
    "lesson": null
  },
  "understand": {
    "hanzi": "明白",
    "pinyin": "míngbai",
    "zhuyin": "ㄇㄧㄥˊ ㄅㄞ˙",
    "ipa": "/miŋ˧˥ paɪ/",
    "english": "understand",
    "state": "not_started",
    "correctPrompts": [],
    "lesson": null
  },
  "tea": {
    "hanzi": "茶",
    "pinyin": "chá",
    "zhuyin": "ㄔㄚˊ",
    "ipa": "/ʈʂʰa˧˥/",
    "english": "tea",
    "state": "not_started",
    "correctPrompts": [],
    "lesson": null
  },
  "coffee": {
    "hanzi": "咖啡",
    "pinyin": "kāfēi",
    "zhuyin": "ㄎㄚ ㄈㄟ",
    "ipa": "/kʰa˥˥ fei˥˥/",
    "english": "coffee",
    "state": "not_started",
    "correctPrompts": [],
    "lesson": null
  },
  "milk": {
    "hanzi": "牛奶",
    "pinyin": "niúnǎi",
    "zhuyin": "ㄋㄧㄡˊ ㄋㄞˇ",
    "ipa": "/njoʊ˧˥ naɪ˨˩˦/",
    "english": "milk",
    "state": "not_started",
    "correctPrompts": [],
    "lesson": null
  },
  "bread": {
    "hanzi": "面包",
    "pinyin": "miànbāo",
    "zhuyin": "ㄇㄧㄢˋ ㄅㄠ",
    "ipa": "/mjɛn˥˩ pɑʊ˥˥/",
    "english": "bread",
    "state": "not_started",
    "correctPrompts": [],
    "lesson": null
  },
  "fruit": {
    "hanzi": "水果",
    "pinyin": "shuǐguǒ",
    "zhuyin": "ㄕㄨㄟˇ ㄍㄨㄛˇ",
    "ipa": "/ʂueɪ˨˩˦ kuɔ˨˩˦/",
    "english": "fruit",
    "state": "not_started",
    "correctPrompts": [],
    "lesson": null
  },
  "apple": {
    "hanzi": "苹果",
    "pinyin": "píngguǒ",
    "zhuyin": "ㄆㄧㄥˊ ㄍㄨㄛˇ",
    "ipa": "/pʰiŋ˧˥ kuɔ˨˩˦/",
    "english": "apple",
    "state": "not_started",
    "correctPrompts": [],
    "lesson": null
  },
  "correct": {
    "hanzi": "对",
    "pinyin": "duì",
    "zhuyin": "ㄉㄨㄟˋ",
    "ipa": "/tuei˥˩/",
    "english": "correct/yes",
    "state": "not_started",
    "correctPrompts": [],
    "lesson": null
  }
}
